ONEWEB-0319             
1 49105U 21075AG  25094.71794970  .00000022  00000+0  24584-4 0  9998
2 49105  87.9003  93.2143 0002089 102.6338 257.5027 13.17646144176854
ONEWEB-0323             
1 49106U 21075AH  25094.44828813 -.00000215  00000+0 -63171-3 0  9993
2 49106  87.8816  77.9503 0002177 107.2730 252.8636 13.12442991177001
ONEWEB-0329             
1 49107U 21075AJ  25094.49859568  .00000018  00000+0  13649-4 0  9995
2 49107  87.9004  93.2629 0001878  96.1797 263.9549 13.17650726175813
ONEWEB-0330             
1 49108U 21075AK  25094.50027397  .00000033  00000+0  52856-4 0  9995
2 49108  87.9003  93.2648 0001721  93.5834 266.5495 13.17651056175854
ONEWEB-0292             
1 49186U 21083A   25094.38260481  .00000314  00000+0  82566-3 0  9991
2 49186  87.8961  47.4682 0002029  85.9902 274.1459 13.13467276173324
ONEWEB-0303             
1 49187U 21083B   25094.43527466  .00000076  00000+0  15944-3 0  9998
2 49187  87.9096  62.6711 0002069  90.4489 269.6880 13.18687879172157
ONEWEB-0306             
1 49188U 21083C   25094.42578537  .00000060  00000+0  11952-3 0  9991
2 49188  87.9095  62.6579 0001848  80.9336 279.2005 13.18683274172193
ONEWEB-0307             
1 49189U 21083D   25094.37668871  .00000131  00000+0  32331-3 0  9990
2 49189  87.8961  47.4724 0001641  74.8680 285.2631 13.13471588173329
